1 44766U 19074BF  23278.61252347  .00032456  00000-0  21872-2 0  9992
2 44766  53.0534 244.3768 0001635 121.0523 239.0627 15.06409983214643
1 44766U 19074BF  23278.61252347  .00032456  00000-0  21872-2 0  9992
2 44766  53.0534 244.3768 0001635 121.0523 239.0627 15.06409983214812
1 44766U 19074BF  23279.40865827  .00036866  00000-0  24758-2 0  9998
2 44766  53.0527 240.8018 0001602 125.4170 234.6969 15.06476912214763
1 44766U 19074BF  23279.40865827  .00036866  00000-0  24758-2 0  9998
2 44766  53.0527 240.8018 0001602 125.4170 234.6969 15.06476912214932
1 44766U 19074BF  23280.07214694  .00014666  00000-0  10021-2 0  9995
2 44766  53.0526 237.8232 0002471 147.2123 212.9019 15.06373019215031
1 44766U 19074BF  23280.40389254  .00031313  00000-0  21132-2 0  9990
2 44766  53.0526 236.3350 0001479 131.9469 228.1646 15.06373937214916
1 44766U 19074BF  23280.40389254  .00031313  00000-0  21132-2 0  9990
2 44766  53.0526 236.3350 0001479 131.9469 228.1646 15.06373937215085
1 44766U 19074BF  23280.60293690  .00030131  00000-0  20339-2 0  9995
2 44766  53.0530 235.4425 0001329 103.8415 256.2722 15.06385141214947
1 44766U 19074BF  23281.26639502  .00042853  00000-0  28747-2 0  9999
2 44766  53.0520 232.4628 0001339 107.6768 252.4367 15.06447019215219
1 44766U 19074BF  23281.59813822  .00011013  00000-0  75695-3 0  9993
2 44766  53.0532 230.9723 0002261  88.3163 271.8085 15.06404620215099
1 44766U 19074BF  23281.59813822  .00011013  00000-0  75695-3 0  9993
2 44766  53.0532 230.9723 0002261  88.3163 271.8085 15.06404620215268
1 44766U 19074BF  23281.86352755  .00005637  00000-0  39710-3 0  9999
2 44766  53.0527 229.7822 0002060  92.5550 267.5675 15.06392290215134
1 44766U 19074BF  23282.12891900 -.00001171  00000-0 -59751-4 0  9998
2 44766  53.0534 228.5897 0001635 101.8172 258.3001 15.06386361215179
1 44766U 19074BF  23282.12891900 -.00001171  00000-0 -59751-4 0  9998
2 44766  53.0534 228.5897 0001635 101.8172 258.3001 15.06386361215348
1 44766U 19074BF  23282.85873382  .00012892  00000-0  88259-3 0  9996
2 44766  53.0539 225.3138 0001449  97.4033 262.7120 15.06408176215288
1 44766U 19074BF  23283.12411688  .00031213  00000-0  21030-2 0  9995
2 44766  53.0526 224.1221 0001464  96.5993 263.5163 15.06436112215328
1 44766U 19074BF  23283.12411688  .00031213  00000-0  21030-2 0  9995
2 44766  53.0526 224.1221 0001464  96.5993 263.5163 15.06436112215496
1 44766U 19074BF  23283.85394655  .00017487  00000-0  11903-2 0  9994
2 44766  53.0534 220.8461 0001715  99.7735 260.3448 15.06388098215436
1 44766U 19074BF  23284.05299409  .00018207  00000-0  12394-2 0  9994
2 44766  53.0533 219.9525 0001310  83.0803 277.0335 15.06358885215631
1 44766U 19074BF  23284.25202900  .00044091  00000-0  29623-2 0  9999
2 44766  53.0536 219.0596 0001380  82.8307 277.2839 15.06377041215665
1 44766U 19074BF  23284.51741901  .00049234  00000-0  33022-2 0  9999
2 44766  53.0536 217.8675 0001620  84.2519 275.8655 15.06388673215536
1 44766U 19074BF  23285.11453197  .00018102  00000-0  12300-2 0  9999
2 44766  53.0547 215.1906 0001363  88.8898 271.2247 15.06430056215798
1 44766U 19074BF  23285.24722113  .00030396  00000-0  20482-2 0  9999
2 44766  53.0546 214.5923 0001421  81.2817 278.8332 15.06445828215816
1 44766U 19074BF  23285.51261531 -.00006517  00000-0 -41903-3 0  9993
2 44766  53.0534 213.3986 0001617  94.8095 265.3079 15.06396819215683
1 44766U 19074BF  23285.51261531 -.00006517  00000-0 -41903-3 0  9993
2 44766  53.0534 213.3986 0001617  94.8095 265.3079 15.06396819215852
1 44766U 19074BF  23286.50782553  .00027503  00000-0  18574-2 0  9998
2 44766  53.0544 208.9340 0001608 111.3503 248.7657 15.06413569215833
1 44766U 19074BF  23286.50782553  .00027503  00000-0  18574-2 0  9998
2 44766  53.0544 208.9340 0001608 111.3503 248.7657 15.06413569216003
1 44766U 19074BF  23287.17126464  .00049792  00000-0  33296-2 0  9997
2 44766  53.0537 205.9538 0001403 121.7338 238.3788 15.06494578216105
1 44766U 19074BF  23287.50301367 -.00012223  00000-0 -80285-3 0  9993
2 44766  53.0539 204.4655 0003052  82.0755 278.0581 15.06405845215981
1 44766U 19074BF  23287.76840434 -.00025624  00000-0 -17096-2 0  9992
2 44766  53.0538 203.2740 0001443  92.5813 267.5342 15.06355856216025
1 44766U 19074BF  23287.76840434 -.00025624  00000-0 -17096-2 0  9992
2 44766  53.0538 203.2740 0001443  92.5813 267.5342 15.06355856216193
1 44766U 19074BF  23288.16650393  .00067192  00000-0  44903-2 0  9991
2 44766  53.0548 201.4832 0001769 100.7969 259.3219 15.06372613216250
1 44766U 19074BF  23288.49823959  .00061682  00000-0  41228-2 0  9992
2 44766  53.0550 199.9947 0001757 102.2243 257.8942 15.06408770216137
1 44766U 19074BF  23288.89631433  .00034542  00000-0  23246-2 0  9995
2 44766  53.0537 198.2111 0001308  94.6657 265.4482 15.06430663216198
1 44766U 19074BF  23289.16169360  .00040312  00000-0  27058-2 0  9998
2 44766  53.0538 197.0198 0001425  93.6338 266.4814 15.06454390216403
1 44766U 19074BF  23290.09056054  .00037424  00000-0  25174-2 0  9994
2 44766  53.0544 192.8486 0001658 118.6666 241.4490 15.06408549216546
1 44766U 19074BF  23290.42229308  .00037415  00000-0  25164-2 0  9994
2 44766  53.0539 191.3597 0001374  83.7128 276.4017 15.06415364216420
1 44766U 19074BF  23290.42229308  .00037415  00000-0  25164-2 0  9994
2 44766  53.0539 191.3597 0001374  83.7128 276.4017 15.06415364216598
1 44766U 19074BF  23290.75402074  .00024262  00000-0  16408-2 0  9990
2 44766  53.0540 189.8701 0001047  64.7823 295.3275 15.06429432216640
1 44766U 19074BF  23291.08574174  .00030999  00000-0  20873-2 0  9993
2 44766  53.0535 188.3821 0001404  80.7574 279.3574 15.06462565216524
1 44766U 19074BF  23291.08574174  .00030999  00000-0  20873-2 0  9993
2 44766  53.0535 188.3821 0001404  80.7574 279.3574 15.06462565216692
1 44766U 19074BF  23291.74921647  .00016623  00000-0  11321-2 0  9993
2 44766  53.0537 185.4026 0000985  99.3859 260.7241 15.06403536216625
1 44766U 19074BF  23291.74921647  .00016623  00000-0  11321-2 0  9993
2 44766  53.0537 185.4026 0000985  99.3859 260.7241 15.06403536216793
1 44766U 19074BF  23292.14730127  .00034760  00000-0  23410-2 0  9993
2 44766  53.0533 183.6160 0001386 106.3165 253.7977 15.06399975216680
1 44766U 19074BF  23292.14730127  .00034760  00000-0  23410-2 0  9993
2 44766  53.0533 183.6160 0001386 106.3165 253.7977 15.06399975216859
1 44766U 19074BF  23292.94344638  .00036041  00000-0  24225-2 0  9998
2 44766  53.0521 180.0430 0001346 108.1008 252.0127 15.06455692216802
1 44766U 19074BF  23293.00979022  .00037696  00000-0  25318-2 0  9998
2 44766  53.0520 179.7444 0001409 110.1199 249.9942 15.06462543216819
1 44766U 19074BF  23293.87231781  .00008196  00000-0  56911-3 0  9993
2 44766  53.0519 175.8724 0001384  88.7844 271.3303 15.06357953217116
1 44766U 19074BF  23293.93866747  .00018070  00000-0  12303-2 0  9994
2 44766  53.0519 175.5746 0001334  85.4214 274.6928 15.06356736216955
1 44766U 19074BF  23294.40310592  .00035130  00000-0  23666-2 0  9999
2 44766  53.0521 173.4897 0001370  87.0723 273.0423 15.06383681217026
1 44766U 19074BF  23294.40310592  .00035130  00000-0  23666-2 0  9999
2 44766  53.0521 173.4897 0001370  87.0723 273.0423 15.06383681217194
1 44766U 19074BF  23294.93387930  .00023775  00000-0  16091-2 0  9993
2 44766  53.0525 171.1074 0001494  84.8611 275.2548 15.06412060217105
1 44766U 19074BF  23294.93387930  .00023775  00000-0  16091-2 0  9993
2 44766  53.0525 171.1074 0001494  84.8611 275.2548 15.06412060217273
1 44766U 19074BF  23295.86273941  .00014809  00000-0  10110-2 0  9996
2 44766  53.0531 166.9369 0001406 105.4632 254.6512 15.06400083217415
1 44766U 19074BF  23295.92908536  .00000754  00000-0  69550-4 0  9996
2 44766  53.0531 166.6392 0001640  96.0405 264.0771 15.06388537217254
1 44766U 19074BF  23295.92908536  .00000754  00000-0  69550-4 0  9996
2 44766  53.0531 166.6392 0001640  96.0405 264.0771 15.06388537217423
1 44766U 19074BF  23296.92429729  .00018807  00000-0  12779-2 0  9996
2 44766  53.0534 162.1715 0001670 100.2783 259.8394 15.06406101217405
1 44766U 19074BF  23297.05699014  .00018493  00000-0  12568-2 0  9994
2 44766  53.0533 161.5761 0001664 100.9695 259.1481 15.06410401217598
1 44766U 19074BF  23297.32237581  .00012787  00000-0  87551-3 0  9996
2 44766  53.0531 160.3845 0001640 100.9697 259.1477 15.06411046217469
1 44766U 19074BF  23298.58295695  .00005830  00000-0  40978-3 0  9998
2 44766  53.0547 154.7273 0001908 107.5103 252.6095 15.06418365217825
1 44766U 19074BF  23298.91468603  .00008720  00000-0  60320-3 0  9990
2 44766  53.0536 153.2374 0001828 105.4086 254.7105 15.06424368217709
1 44766U 19074BF  23298.98103070  .00009235  00000-0  63760-3 0  9994
2 44766  53.0535 152.9395 0001826 105.3806 254.7385 15.06427828217719
1 44766U 19074BF  23299.77718811  .00001967  00000-0  15090-3 0  9994
2 44766  53.0527 149.3639 0002564 138.1731 221.9454 15.06415020218009
1 44766U 19074BF  23299.84353801  .00003496  00000-0  25340-3 0  9994
2 44766  53.0525 149.0667 0001544  99.5918 260.5246 15.06413466217840
1 44766U 19074BF  23300.57334800  .00010949  00000-0  75241-3 0  9991
2 44766  53.0525 145.7896 0001527 100.6780 259.4381 15.06418322217954
1 44766U 19074BF  23300.83872882  .00012822  00000-0  87740-3 0  9996
2 44766  53.0523 144.5989 0001508  98.7161 261.3999 15.06430309217991
1 44766U 19074BF  23300.83872882  .00012822  00000-0  87740-3 0  9996
2 44766  53.0523 144.5989 0001508  98.7161 261.3999 15.06430309218161
1 44766U 19074BF  23301.30316312 -.00008773  00000-0 -57107-3 0  9996
2 44766  53.0527 142.5127 0001574  99.9612 260.1555 15.06381275218065
1 44766U 19074BF  23301.30316312 -.00008773  00000-0 -57107-3 0  9996
2 44766  53.0527 142.5127 0001574  99.9612 260.1555 15.06381275218234
1 44766U 19074BF  23301.83393977 -.00000491  00000-0 -14104-4 0  9996
2 44766  53.0524 140.1308 0001471  86.0716 274.0441 15.06386189218141
1 44766U 19074BF  23301.83393977 -.00000491  00000-0 -14104-4 0  9996
2 44766  53.0524 140.1308 0001471  86.0716 274.0441 15.06386189218310
